NORAD_CAT_ID,OBJECT_NAME,OBJECT_TYPE,EPOCH,MEAN_MOTION,ECCENTRICITY,INCLINATION,RA_OF_ASC_NODE,ARG_OF_PERICENTER,MEAN_ANOMALY,BSTAR,MEAN_MOTION_DOT,MEAN_MOTION_DDOT,TLE_LINE0,TLE_LINE1,TLE_LINE2,SEMIMAJOR_AXIS,PERIOD,APOGEE,PERIGEE,DECAYED
56452.0,STARLINK-5986,PAYLOAD,2023-11-09 20:12:12,14.98314189,0.0003067,69.9989,129.8956,268.6903,91.3905,0.000348,4.06e-05,0.0,0 STARLINK-5986,1 56452U 23064E   23313.84180838  .00004060  00000-0  34800-3 0  9997,2 56452  69.9989 129.8956 0003067 268.6903  91.3905 14.98314189 28155,6950.242,96.108,574.238,569.975,0.0
56452.0,STARLINK-5986,PAYLOAD,2023-11-09 21:48:19,14.98330267,0.000315,69.9989,129.7273,267.8438,92.236,8.3333e-05,9.01e-06,0.0,0 STARLINK-5986,1 56452U 23064E   23313.90856455  .00000901  00000-0  83333-4 0  9995,2 56452  69.9989 129.7273 0003150 267.8438  92.2360 14.98330267 27804,6950.192,96.107,574.246,569.868,0.0
56452.0,STARLINK-5986,PAYLOAD,2023-11-10 13:49:40,14.98331626,0.0003104,69.9989,128.044,267.8948,92.1855,3.1961e-05,2.88e-06,0.0,0 STARLINK-5986,1 56452U 23064E   23314.57616483  .00000288  00000-0  31961-4 0  9992,2 56452  69.9989 128.0440 0003104 267.8948  92.1855 14.98331626 27906,6950.188,96.107,574.21,569.896,0.0
56452.0,STARLINK-5986,PAYLOAD,2023-11-10 21:50:20,14.98332815,0.0003126,69.9989,127.2026,268.5101,91.57,2.5001e-05,2.05e-06,0.0,0 STARLINK-5986,1 56452U 23064E   23314.90996363  .00000205  00000-0  25001-4 0  9994,2 56452  69.9989 127.2026 0003126 268.5101  91.5700 14.98332815 27958,6950.184,96.107,574.222,569.877,0.0
56452.0,STARLINK-5986,PAYLOAD,2023-11-11 13:51:41,14.98332682,0.000304,69.9993,125.5195,269.4781,90.6029,-1.2932e-05,-2.47e-06,0.0,0 STARLINK-5986,1 56452U 23064E   23315.57756380 -.00000247  00000-0 -12932-4 0  9998,2 56452  69.9993 125.5195 0003040 269.4781  90.6029 14.98332682 28058,6950.185,96.107,574.162,569.937,0.0
56452.0,STARLINK-5986,PAYLOAD,2023-11-11 21:52:21,14.98332423,0.0003022,69.9994,124.6778,269.9313,90.1499,-6.5511e-06,-1.71e-06,0.0,0 STARLINK-5986,1 56452U 23064E   23315.91136311 -.00000171  00000-0 -65511-5 0  9990,2 56452  69.9994 124.6778 0003022 269.9313  90.1499 14.98332423 28107,6950.185,96.107,574.151,569.95,0.0
56452.0,STARLINK-5986,PAYLOAD,2023-11-12 13:53:42,14.98331147,0.000301,69.9994,122.9947,269.6604,90.421,-2.2088e-05,-3.57e-06,0.0,0 STARLINK-5986,1 56452U 23064E   23316.57896352 -.00000357  00000-0 -22088-4 0  9998,2 56452  69.9994 122.9947 0003010 269.6604  90.4210 14.98331147 28200,6950.189,96.107,574.146,569.962,0.0
56452.0,STARLINK-5986,PAYLOAD,2023-11-12 21:54:22,14.98330297,0.0003014,69.9994,122.1532,269.0319,91.0494,-2.1019e-05,-3.44e-06,0.0,0 STARLINK-5986,1 56452U 23064E   23316.91276370 -.00000344  00000-0 -21019-4 0  9997,2 56452  69.9994 122.1532 0003014 269.0319  91.0494 14.98330297 28254,6950.192,96.107,574.152,569.962,0.0
56452.0,STARLINK-5986,PAYLOAD,2023-11-13 12:19:35,14.98329336,0.0002994,69.9995,120.6382,268.1234,91.9582,-1.9105e-05,-3.21e-06,0.0,0 STARLINK-5986,1 56452U 23064E   23317.51360417 -.00000321  00000-0 -19105-4 0  9998,2 56452  69.9995 120.6382 0002994 268.1234  91.9582 14.98329336 28342,6950.195,96.107,574.141,569.979,0.0
56452.0,STARLINK-5986,PAYLOAD,2023-11-13 21:56:23,14.98329859,0.0002997,69.9995,119.6282,268.5024,91.5792,-1.0766e-05,-2.21e-06,0.0,0 STARLINK-5986,1 56452U 23064E   23317.91416366 -.00000221  00000-0 -10766-4 0  9990,2 56452  69.9995 119.6282 0002997 268.5024  91.5792 14.98329859 28409,6950.193,96.107,574.141,569.975,0.0
56452.0,STARLINK-5986,PAYLOAD,2023-11-14 12:21:36,14.98329932,0.0003057,69.9992,118.1133,269.8033,90.2776,2.1203e-05,1.6e-06,0.0,0 STARLINK-5986,1 56452U 23064E   23318.51500264  .00000160  00000-0  21203-4 0  9996,2 56452  69.9992 118.1133 0003057 269.8033  90.2776 14.98329932 28496,6950.193,96.107,574.183,569.933,0.0
56452.0,STARLINK-5986,PAYLOAD,2023-11-14 20:22:16,14.98330594,0.0003066,69.9993,117.2716,269.9008,90.1799,1.5077e-05,8.7e-07,0.0,0 STARLINK-5986,1 56452U 23064E   23318.84880228  .00000087  00000-0  15077-4 0  9993,2 56452  69.9993 117.2716 0003066 269.9008  90.1799 14.98330594 28543,6950.191,96.107,574.187,569.925,0.0
56452.0,STARLINK-5986,PAYLOAD,2023-11-15 10:47:29,14.98330299,0.0003064,69.9989,115.7565,269.8814,90.1994,1.2878e-05,6.1e-07,0.0,0 STARLINK-5986,1 56452U 23064E   23319.44964233  .00000061  00000-0  12878-4 0  9997,2 56452  69.9989 115.7565 0003064 269.8814  90.1994 14.98330299 28993,6950.192,96.107,574.187,569.927,0.0
56452.0,STARLINK-5986,PAYLOAD,2023-11-15 12:23:37,14.98330301,0.0003064,69.9989,115.5882,269.8669,90.2138,1.2876e-05,6.1e-07,0.0,0 STARLINK-5986,1 56452U 23064E   23319.51640226  .00000061  00000-0  12876-4 0  9996,2 56452  69.9989 115.5882 0003064 269.8669  90.2138 14.98330301 28648,6950.192,96.107,574.186,569.927,0.0
56452.0,STARLINK-5986,PAYLOAD,2023-11-15 17:12:01,14.98331314,0.0003066,69.9988,115.0831,269.7333,90.3475,2.3583e-05,1.88e-06,0.0,0 STARLINK-5986,1 56452U 23064E   23319.71668115  .00000188  00000-0  23583-4 0  9992,2 56452  69.9988 115.0831 0003066 269.7333  90.3475 14.98331314 28678,6950.189,96.107,574.185,569.923,0.0
56452.0,STARLINK-5986,PAYLOAD,2023-11-16 17:14:01,14.9833288,0.0003019,69.9992,112.5585,269.61,90.4713,2.5009e-05,2.05e-06,0.0,0 STARLINK-5986,1 56452U 23064E   23320.71807841  .00000205  00000-0  25009-4 0  9990,2 56452  69.9992 112.5585 0003019 269.6100  90.4713 14.98332880 29182,6950.184,96.107,574.147,569.951,0.0
56452.0,STARLINK-5986,PAYLOAD,2023-11-17 12:27:39,14.98327531,0.0003104,69.9995,110.5387,270.3459,89.7344,-4.78e-05,-6.63e-06,0.0,0 STARLINK-5986,1 56452U 23064E   23321.51920327 -.00000663  00000-0 -47800-4 0  9997,2 56452  69.9995 110.5387 0003104 270.3459  89.7344 14.98327531 29306,6950.201,96.107,574.223,569.908,0.0
56452.0,STARLINK-5986,PAYLOAD,2023-11-18 12:29:39,14.98330592,0.0003013,69.9997,108.0138,271.5992,88.4822,-3.4484e-05,-5.04e-06,0.0,0 STARLINK-5986,1 56452U 23064E   23322.52060131 -.00000504  00000-0 -34484-4 0  9995,2 56452  69.9997 108.0138 0003013 271.5992  88.4822 14.98330592 29452,6950.191,96.107,574.15,569.962,0.0
56452.0,STARLINK-5986,PAYLOAD,2023-11-18 15:41:55,14.9833341,0.0003063,69.9996,107.6773,270.6235,89.4573,-1.3979e-06,-1.1e-06,0.0,0 STARLINK-5986,1 56452U 23064E   23322.65411841 -.00000110  00000-0 -13979-5 0  9997,2 56452  69.9996 107.6773 0003063 270.6235  89.4573 14.98333410 29115,6950.182,96.107,574.176,569.919,0.0
56452.0,STARLINK-5986,PAYLOAD,2023-11-19 14:07:48,14.98327441,0.0003046,69.9997,105.3211,267.3972,92.6839,2.6833e-05,2.27e-06,0.0,0 STARLINK-5986,1 56452U 23064E   23323.58876132  .00000227  00000-0  26833-4 0  9997,2 56452  69.9997 105.3211 0003046 267.3972  92.6839 14.98327441 29253,6950.201,96.107,574.183,569.949,0.0
56452.0,STARLINK-5986,PAYLOAD,2023-11-19 18:56:13,14.98327887,0.0002975,69.9995,104.8152,265.2477,94.8342,2.0529e-05,1.52e-06,0.0,0 STARLINK-5986,1 56452U 23064E   23323.78904132  .00000152  00000-0  20529-4 0  9994,2 56452  69.9995 104.8152 0002975 265.2477  94.8342 14.98327887 29646,6950.199,96.107,574.132,569.997,0.0
56452.0,STARLINK-5986,PAYLOAD,2023-11-20 14:09:49,14.98330902,0.0003122,69.9994,102.7954,268.0674,92.0127,8.4608e-06,8e-08,0.0,0 STARLINK-5986,1 56452U 23064E   23324.59015966  .00000008  00000-0  84608-5 0  9991,2 56452  69.9994 102.7954 0003122 268.0674  92.0127 14.98330902 29404,6950.19,96.107,574.225,569.885,0.0
56452.0,STARLINK-5986,PAYLOAD,2023-11-20 18:58:13,14.98334879,0.0003123,69.9996,102.291,269.9963,90.0838,2.942e-05,2.58e-06,0.0,0 STARLINK-5986,1 56452U 23064E   23324.79043614  .00000258  00000-0  29420-4 0  9991,2 56452  69.9996 102.2910 0003123 269.9963  90.0838 14.98334879 29791,6950.178,96.107,574.213,569.872,0.0
56452.0,STARLINK-5986,PAYLOAD,2023-11-21 10:59:34,14.98328278,0.0003156,69.9999,100.6079,269.1684,90.9114,6.9376e-06,-1e-07,0.0,0 STARLINK-5986,1 56452U 23064E   23325.45804027 -.00000010  00000-0  69376-5 0  9990,2 56452  69.9999 100.6079 0003156 269.1684  90.9114 14.98328278 29893,6950.198,96.107,574.257,569.87,0.0
56452.0,STARLINK-5986,PAYLOAD,2023-11-21 12:35:42,14.98330036,0.0003078,69.9999,100.4396,267.9474,92.1333,-1.3243e-05,-2.51e-06,0.0,0 STARLINK-5986,1 56452U 23064E   23325.52479990 -.00000251  00000-0 -13243-4 0  9994,2 56452  69.9999 100.4396 0003078 267.9474  92.1333 14.98330036 29543,6950.193,96.107,574.197,569.919,0.0
56452.0,STARLINK-5986,PAYLOAD,2023-11-21 19:00:14,14.98338124,0.0002948,70.0,99.7662,266.2859,93.7963,-2.4106e-05,-3.81e-06,0.0,0 STARLINK-5986,1 56452U 23064E   23325.79183437 -.00000381  00000-0 -24106-4 0  9995,2 56452  70.0000  99.7662 0002948 266.2859  93.7963 14.98338124 29585,6950.168,96.106,574.082,569.984,0.0
56452.0,STARLINK-5986,PAYLOAD,2023-11-22 12:37:42,14.98346238,0.0003231,70.0001,97.9147,269.5064,90.5725,-0.00012927,-1.636e-05,0.0,0 STARLINK-5986,1 56452U 23064E   23326.52618890 -.00001636  00000-0 -12927-3 0  9994,2 56452  70.0001  97.9147 0003231 269.5064  90.5725 14.98346238 29692,6950.143,96.106,574.253,569.762,0.0
56452.0,STARLINK-5986,PAYLOAD,2023-11-22 19:02:14,14.98345251,0.0002892,70.0004,97.242,269.4709,90.6119,0.00010949,1.214e-05,0.0,0 STARLINK-5986,1 56452U 23064E   23326.79322248  .00001214  00000-0  10949-3 0  9994,2 56452  70.0004  97.2420 0002892 269.4709  90.6119 14.98345251 30097,6950.146,96.106,574.021,570.001,0.0
56452.0,STARLINK-5986,PAYLOAD,2023-11-23 11:03:36,14.98303508,0.000289,70.0045,95.5676,261.742,98.3411,0.00029056,3.373e-05,0.0,0 STARLINK-5986,1 56452U 23064E   23327.46084411  .00003373  00000-0  29056-3 0  9993,2 56452  70.0045  95.5676 0002890 261.7420  98.3411 14.98303508 30199,6950.275,96.109,574.148,570.131,0.0
56452.0,STARLINK-5986,PAYLOAD,2023-11-23 14:15:52,14.98321811,0.0002921,70.001,95.2225,258.5988,101.4843,-8.2488e-05,-1.077e-05,0.0,0 STARLINK-5986,1 56452U 23064E   23327.59436158 -.00001077  00000-0 -82488-4 0  9996,2 56452  70.0010  95.2225 0002921 258.5988 101.4843 14.98321811 29859,6950.218,96.108,574.113,570.053,0.0
